[
    {
        "Altitude(m)": 707300.1434559949,
        "Argument of Periapsis(deg)": 0.010251109067964361,
        "Eccentricity": 0.0,
        "Inclination(deg)": 45.0,
        "Latitude(deg)": 45.111797935419574,
        "Longitude(deg)": 102.43158564545396,
        "Mean Anomaly(deg)": 92.19809498273273,
        "RAAN(deg)": 109.99032325268762,
        "Satellite Name": "Constellation 1 489",
        "Satellite Number": 489,
        "Semi-Major Axis(m)": 7083131.272910544,
        "Time(s)": 171
    },
    {
        "Altitude(m)": 707299.6122554828,
        "Argument of Periapsis(deg)": 0.010311057074209765,
        "Eccentricity": 0.0,
        "Inclination(deg)": 45.0,
        "Latitude(deg)": 45.10942110839209,
        "Longitude(deg)": 102.51323961355727,
        "Mean Anomaly(deg)": 92.25879612298262,
        "RAAN(deg)": 109.99026666352205,
        "Satellite Name": "Constellation 1 489",
        "Satellite Number": 489,
        "Semi-Major Axis(m)": 7083131.272910544,
        "Time(s)": 172
    },
    {
        "Altitude(m)": 707299.0664750495,
        "Argument of Periapsis(deg)": 0.010371005080455171,
        "Eccentricity": 0.0,
        "Inclination(deg)": 45.0,
        "Latitude(deg)": 45.106979911224435,
        "Longitude(deg)": 102.59488637156706,
        "Mean Anomaly(deg)": 92.31949726323255,
        "RAAN(deg)": 109.99021007435647,
        "Satellite Name": "Constellation 1 489",
        "Satellite Number": 489,
        "Semi-Major Axis(m)": 7083131.272910544,
        "Time(s)": 173
    },
    {
        "Altitude(m)": 707298.5061179191,
        "Argument of Periapsis(deg)": 0.010430953086700577,
        "Eccentricity": 0.0,
        "Inclination(deg)": 45.0,
        "Latitude(deg)": 45.10447435478608,
        "Longitude(deg)": 102.67652572811046,
        "Mean Anomaly(deg)": 92.38019840348245,
        "RAAN(deg)": 109.9901534851909,
        "Satellite Name": "Constellation 1 489",
        "Satellite Number": 489,
        "Semi-Major Axis(m)": 7083131.272910544,
        "Time(s)": 174
    },
    {
        "Altitude(m)": 707297.9311874063,
        "Argument of Periapsis(deg)": 0.010490901092945983,
        "Eccentricity": 0.0,
        "Inclination(deg)": 45.0,
        "Latitude(deg)": 45.10190445023061,
        "Longitude(deg)": 102.75815749194712,
        "Mean Anomaly(deg)": 92.44089954373234,
        "RAAN(deg)": 109.99009689602535,
        "Satellite Name": "Constellation 1 489",
        "Satellite Number": 489,
        "Semi-Major Axis(m)": 7083131.272910544,
        "Time(s)": 175
    },
    {
        "Altitude(m)": 707297.3416869027,
        "Argument of Periapsis(deg)": 0.010550849099191389,
        "Eccentricity": 0.0,
        "Inclination(deg)": 45.0,
        "Latitude(deg)": 45.0992702089956,
        "Longitude(deg)": 102.83978147197281,
        "Mean Anomaly(deg)": 92.50160068398223,
        "RAAN(deg)": 109.99004030685977,
        "Satellite Name": "Constellation 1 489",
        "Satellite Number": 489,
        "Semi-Major Axis(m)": 7083131.272910544,
        "Time(s)": 176
    },
    {
        "Altitude(m)": 707296.7376198935,
        "Argument of Periapsis(deg)": 0.010610797105436795,
        "Eccentricity": 0.0,
        "Inclination(deg)": 45.0,
        "Latitude(deg)": 45.09657164280214,
        "Longitude(deg)": 102.92139747722258,
        "Mean Anomaly(deg)": 92.56230182423215,
        "RAAN(deg)": 109.9899837176942,
        "Satellite Name": "Constellation 1 489",
        "Satellite Number": 489,
        "Semi-Major Axis(m)": 7083131.272910544,
        "Time(s)": 177
    },
    {
        "Altitude(m)": 707296.1189899432,
        "Argument of Periapsis(deg)": 0.0106707451116822,
        "Eccentricity": 0.0,
        "Inclination(deg)": 45.0,
        "Latitude(deg)": 45.0938087636549,
        "Longitude(deg)": 103.00300514877685,
        "Mean Anomaly(deg)": 92.62300296448204,
        "RAAN(deg)": 109.98992712852862,
        "Satellite Name": "Constellation 1 489",
        "Satellite Number": 489,
        "Semi-Major Axis(m)": 7083131.272910544,
        "Time(s)": 178
    },
    {
        "Altitude(m)": 707295.4858007062,
        "Argument of Periapsis(deg)": 0.010730693117927606,
        "Eccentricity": 0.0,
        "Inclination(deg)": 45.0,
        "Latitude(deg)": 45.09098158384153,
        "Longitude(deg)": 103.08460463215422,
        "Mean Anomaly(deg)": 92.68370410473193,
        "RAAN(deg)": 109.98987053936307,
        "Satellite Name": "Constellation 1 489",
        "Satellite Number": 489,
        "Semi-Major Axis(m)": 7083131.272910544,
        "Time(s)": 179
    },
    {
        "Altitude(m)": 707294.8380559164,
        "Argument of Periapsis(deg)": 0.01079064112417301,
        "Eccentricity": 0.0,
        "Inclination(deg)": 45.0,
        "Latitude(deg)": 45.08809011593273,
        "Longitude(deg)": 103.16619556873074,
        "Mean Anomaly(deg)": 92.74440524498182,
        "RAAN(deg)": 109.9898139501975,
        "Satellite Name": "Constellation 1 489",
        "Satellite Number": 489,
        "Semi-Major Axis(m)": 7083131.272910544,
        "Time(s)": 180
    },
    {
        "Altitude(m)": 707294.1757593948,
        "Argument of Periapsis(deg)": 0.010850589130418416,
        "Eccentricity": 0.0,
        "Inclination(deg)": 45.0,
        "Latitude(deg)": 45.08513437278179,
        "Longitude(deg)": 103.2477777681325,
        "Mean Anomaly(deg)": 92.80510638523171,
        "RAAN(deg)": 109.98975736103192,
        "Satellite Name": "Constellation 1 489",
        "Satellite Number": 489,
        "Semi-Major Axis(m)": 7083131.272910544,
        "Time(s)": 181
    },
    {
        "Altitude(m)": 707293.4989150546,
        "Argument of Periapsis(deg)": 0.01091053713666382,
        "Eccentricity": 0.0,
        "Inclination(deg)": 45.0,
        "Latitude(deg)": 45.08211436752431,
        "Longitude(deg)": 103.32935104014184,
        "Mean Anomaly(deg)": 92.86580752548164,
        "RAAN(deg)": 109.98970077186635,
        "Satellite Name": "Constellation 1 489",
        "Satellite Number": 489,
        "Semi-Major Axis(m)": 7083131.272910544,
        "Time(s)": 182
    },
    {
        "Altitude(m)": 707292.8075268809,
        "Argument of Periapsis(deg)": 0.010970485142909228,
        "Eccentricity": 0.0,
        "Inclination(deg)": 45.0,
        "Latitude(deg)": 45.07903011357805,
        "Longitude(deg)": 103.41091519470058,
        "Mean Anomaly(deg)": 92.92650866573156,
        "RAAN(deg)": 109.98964418270077,
        "Satellite Name": "Constellation 1 489",
        "Satellite Number": 489,
        "Semi-Major Axis(m)": 7083131.272910544,
        "Time(s)": 183
    },
    {
        "Altitude(m)": 707292.1015989581,
        "Argument of Periapsis(deg)": 0.011030433149154634,
        "Eccentricity": 0.0,
        "Inclination(deg)": 45.0,
        "Latitude(deg)": 45.0758816246425,
        "Longitude(deg)": 103.49247004191321,
        "Mean Anomaly(deg)": 92.98720980598144,
        "RAAN(deg)": 109.98958759353522,
        "Satellite Name": "Constellation 1 489",
        "Satellite Number": 489,
        "Semi-Major Axis(m)": 7083131.272910544,
        "Time(s)": 184
    },
    {
        "Altitude(m)": 707291.3811354409,
        "Argument of Periapsis(deg)": 0.01109038115540004,
        "Eccentricity": 0.0,
        "Inclination(deg)": 45.0,
        "Latitude(deg)": 45.072668914698745,
        "Longitude(deg)": 103.57401522395331,
        "Mean Anomaly(deg)": 93.04791094623133,
        "RAAN(deg)": 109.98953100436965,
        "Satellite Name": "Constellation 1 489",
        "Satellite Number": 489,
        "Semi-Major Axis(m)": 7083131.272910544,
        "Time(s)": 185
    },
    {
        "Altitude(m)": 707290.6461405865,
        "Argument of Periapsis(deg)": 0.011150329161645444,
        "Eccentricity": 0.0,
        "Inclination(deg)": 45.0,
        "Latitude(deg)": 45.069391998008875,
        "Longitude(deg)": 103.65555088745576,
        "Mean Anomaly(deg)": 93.10861208648123,
        "RAAN(deg)": 109.98947441520407,
        "Satellite Name": "Constellation 1 489",
        "Satellite Number": 489,
        "Semi-Major Axis(m)": 7083131.272910544,
        "Time(s)": 186
    },
    {
        "Altitude(m)": 707289.8966187192,
        "Argument of Periapsis(deg)": 0.01121027716789085,
        "Eccentricity": 0.0,
        "Inclination(deg)": 45.0,
        "Latitude(deg)": 45.06605088911616,
        "Longitude(deg)": 103.73707667493623,
        "Mean Anomaly(deg)": 93.16931322673115,
        "RAAN(deg)": 109.9894178260385,
        "Satellite Name": "Constellation 1 489",
        "Satellite Number": 489,
        "Semi-Major Axis(m)": 7083131.272910544,
        "Time(s)": 187
    },
    {
        "Altitude(m)": 707289.1325742619,
        "Argument of Periapsis(deg)": 0.011270225174136258,
        "Eccentricity": 0.0,
        "Inclination(deg)": 45.0,
        "Latitude(deg)": 45.06264560284429,
        "Longitude(deg)": 103.81859239718374,
        "Mean Anomaly(deg)": 93.23001436698102,
        "RAAN(deg)": 109.98936123687294,
        "Satellite Name": "Constellation 1 489",
        "Satellite Number": 489,
        "Semi-Major Axis(m)": 7083131.272910544,
        "Time(s)": 188
    },
    {
        "Altitude(m)": 707288.3540117127,
        "Argument of Periapsis(deg)": 0.011330173180381662,
        "Eccentricity": 0.0,
        "Inclination(deg)": 45.0,
        "Latitude(deg)": 45.05917615429735,
        "Longitude(deg)": 103.90009786516677,
        "Mean Anomaly(deg)": 93.29071550723091,
        "RAAN(deg)": 109.98930464770736,
        "Satellite Name": "Constellation 1 489",
        "Satellite Number": 489,
        "Semi-Major Axis(m)": 7083131.272910544,
        "Time(s)": 189
    }
]